[{"address":{"StreetAddress":"20 CARDINAL HAYES PL New York NY undef","City":"New York","State":"NY","Zip":"undef"},"latitude":"40.7132514","longitude":"-74.002398"},{"address":{"StreetAddress":"20 CARDINAL HAYES PL New York NY undef","City":"New York","State":"NY","Zip":"undef"},"latitude":"40.7132514","longitude":"-74.002398"},{"address":{"StreetAddress":"29 MOTT ST New York NY undef","City":"New York","State":"NY","Zip":"undef"},"latitude":"40.7147965","longitude":"-73.9990363"},{"address":{"StreetAddress":"49 FULTON ST New York NY undef","City":"New York","State":"NY","Zip":"undef"},"latitude":"40.7080393","longitude":"-74.0042361"},{"address":{"StreetAddress":"44 JOHN ST New York NY undef","City":"New York","State":"NY","Zip":"undef"},"latitude":"40.7091732","longitude":"-74.0080677"},{"address":{"StreetAddress":"49 FULTON ST New York NY undef","City":"New York","State":"NY","Zip":"undef"},"latitude":"40.7080393","longitude":"-74.0042361"},{"address":{"StreetAddress":"20 CARDINAL HAYES PL New York NY undef","City":"New York","State":"NY","Zip":"undef"},"latitude":"40.7132514","longitude":"-74.002398"},{"address":{"StreetAddress":"22 BARCLAY ST New York NY undef","City":"New York","State":"NY","Zip":"undef"},"latitude":"40.7125016","longitude":"-74.0094639"},{"address":{"StreetAddress":"20 CARDINAL HAYES PL New York NY undef","City":"New York","State":"NY","Zip":"undef"},"latitude":"40.7132514","longitude":"-74.002398"},{"address":{"StreetAddress":"22 BARCLAY ST New York NY undef","City":"New York","State":"NY","Zip":"undef"},"latitude":"40.7125016","longitude":"-74.0094639"},{"address":{"StreetAddress":"283 W BROADWAY New York NY undef","City":"New York","State":"NY","Zip":"undef"},"latitude":"40.6344072","longitude":"-74.1170382"},{"address":{"StreetAddress":"125 BARCLAY ST New York NY undef","City":"New York","State":"NY","Zip":"undef"},"latitude":"40.7143477","longitude":"-74.0130151"},{"address":{"StreetAddress":"49 FULTON ST New York NY undef","City":"New York","State":"NY","Zip":"undef"},"latitude":"40.7080393","longitude":"-74.0042361"},{"address":{"StreetAddress":"49 FULTON ST New York NY undef","City":"New York","State":"NY","Zip":"undef"},"latitude":"40.7080393","longitude":"-74.0042361"},{"address":{"StreetAddress":"20 CARDINAL HAYES PL New York NY undef","City":"New York","State":"NY","Zip":"undef"},"latitude":"40.7132514","longitude":"-74.002398"},{"address":{"StreetAddress":"283 W BROADWAY New York NY undef","City":"New York","State":"NY","Zip":"undef"},"latitude":"40.6344072","longitude":"-74.1170382"},{"address":{"StreetAddress":"49 FULTON ST New York NY undef","City":"New York","State":"NY","Zip":"undef"},"latitude":"40.7080393","longitude":"-74.0042361"},{"address":{"StreetAddress":"22 BARCLAY ST New York NY undef","City":"New York","State":"NY","Zip":"undef"},"latitude":"40.7125016","longitude":"-74.0094639"},{"address":{"StreetAddress":"20 CARDINAL HAYES PL New York NY undef","City":"New York","State":"NY","Zip":"undef"},"latitude":"40.7132514","longitude":"-74.002398"},{"address":{"StreetAddress":"283 W BROADWAY New York NY undef","City":"New York","State":"NY","Zip":"undef"},"latitude":"40.7144166","longitude":"-73.9843646"},{"address":{"StreetAddress":"283 W BROADWAY New York NY undef","City":"New York","State":"NY","Zip":"undef"},"latitude":"40.7144166","longitude":"-73.9843646"},{"address":{"StreetAddress":"283 W BROADWAY New York NY undef","City":"New York","State":"NY","Zip":"undef"},"latitude":"40.6344072","longitude":"-74.1170382"},{"address":{"StreetAddress":"273 BOWERY New York NY undef","City":"New York","State":"NY","Zip":"undef"},"latitude":"40.7236736","longitude":"-73.9924832"},{"address":{"StreetAddress":"232 W 11TH ST New York NY undef","City":"New York","State":"NY","Zip":"undef"},"latitude":"40.736193","longitude":"-74.0028632"},{"address":{"StreetAddress":"283 W BROADWAY New York NY undef","City":"New York","State":"NY","Zip":"undef"},"latitude":"40.6344072","longitude":"-74.1170382"},{"address":{"StreetAddress":"232 W 11TH ST New York NY undef","City":"New York","State":"NY","Zip":"undef"},"latitude":"40.736193","longitude":"-74.0028632"},{"address":{"StreetAddress":"220 W HOUSTON ST New York NY undef","City":"New York","State":"NY","Zip":"undef"},"latitude":"40.7286385","longitude":"-74.0045871"},{"address":{"StreetAddress":"253 CENTER ST New York NY undef","City":"New York","State":"NY","Zip":"undef"},"latitude":"40.7206323","longitude":"-73.9979756"},{"address":{"StreetAddress":"273 BOWERY New York NY undef","City":"New York","State":"NY","Zip":"undef"},"latitude":"40.7236736","longitude":"-73.9924832"},{"address":{"StreetAddress":"487 HUDSON ST New York NY undef","City":"New York","State":"NY","Zip":"undef"},"latitude":"40.7326","longitude":"-74.0067"},{"address":{"StreetAddress":"292 HENRY ST New York NY undef","City":"New York","State":"NY","Zip":"undef"},"latitude":"40.7137143","longitude":"-73.983033"},{"address":{"StreetAddress":"232 W 11TH ST New York NY undef","City":"New York","State":"NY","Zip":"undef"},"latitude":"40.736193","longitude":"-74.0028632"},{"address":{"StreetAddress":"141 HENRY ST New York NY undef","City":"New York","State":"NY","Zip":"undef"},"latitude":"40.6964191","longitude":"-73.9933777"},{"address":{"StreetAddress":"220 W HOUSTON ST New York NY undef","City":"New York","State":"NY","Zip":"undef"},"latitude":"40.7286385","longitude":"-74.0045871"},{"address":{"StreetAddress":"83 CHRISTOPHER ST New York NY undef","City":"New York","State":"NY","Zip":"undef"},"latitude":"40.7335702","longitude":"-74.0037456"},{"address":{"StreetAddress":"50 PERRY ST New York NY undef","City":"New York","State":"NY","Zip":"undef"},"latitude":"40.7354854","longitude":"-74.0031569"},{"address":{"StreetAddress":"232 W 11TH ST New York NY undef","City":"New York","State":"NY","Zip":"undef"},"latitude":"40.736193","longitude":"-74.0028632"},{"address":{"StreetAddress":"224 WAVERLY PL New York NY undef","City":"New York","State":"NY","Zip":"undef"},"latitude":"40.7360657","longitude":"-74.0019452"},{"address":{"StreetAddress":"154 SULLIVAN ST New York NY undef","City":"New York","State":"NY","Zip":"undef"},"latitude":"40.7273786","longitude":"-74.0017414"},{"address":{"StreetAddress":"273 BOWERY ST New York NY undef","City":"New York","State":"NY","Zip":"undef"},"latitude":"40.7236736","longitude":"-73.9924832"},{"address":{"StreetAddress":"371 6TH AVE New York NY undef","City":"New York","State":"NY","Zip":"undef"},"latitude":"40.6701581","longitude":"-73.9819879"},{"address":{"StreetAddress":"155 SULLIVAN ST New York NY undef","City":"New York","State":"NY","Zip":"undef"},"latitude":"40.7272525","longitude":"-74.0015782"},{"address":{"StreetAddress":"7 E 10TH STRERT New York NY undef","City":"New York","State":"NY","Zip":"undef"},"latitude":"40.6482599","longitude":"-73.9704806"},{"address":{"StreetAddress":"232 W 11TH ST New York NY undef","City":"New York","State":"NY","Zip":"undef"},"latitude":"40.736193","longitude":"-74.0028632"},{"address":{"StreetAddress":"81 CHRISTOPHER ST New York NY undef","City":"New York","State":"NY","Zip":"undef"},"latitude":"40.6367254","longitude":"-74.1643744"},{"address":{"StreetAddress":"273 BOWERY New York NY undef","City":"New York","State":"NY","Zip":"undef"},"latitude":"40.7236736","longitude":"-73.9924832"},{"address":{"StreetAddress":"232 W 11TH ST New York NY undef","City":"New York","State":"NY","Zip":"undef"},"latitude":"40.736193","longitude":"-74.0028632"},{"address":{"StreetAddress":"232 W 11TH ST New York NY undef","City":"New York","State":"NY","Zip":"undef"},"latitude":"40.736193","longitude":"-74.0028632"},{"address":{"StreetAddress":"83 CHRISTOPHER ST New York NY undef","City":"New York","State":"NY","Zip":"undef"},"latitude":"40.7335702","longitude":"-74.0037456"},{"address":{"StreetAddress":"220 W HOUSTON ST New York NY undef","City":"New York","State":"NY","Zip":"undef"},"latitude":"40.7286385","longitude":"-74.0045871"},{"address":{"StreetAddress":"273 BOWERY New York NY undef","City":"New York","State":"NY","Zip":"undef"},"latitude":"40.7236736","longitude":"-73.9924832"},{"address":{"StreetAddress":"7 E 10TH ST New York NY undef","City":"New York","State":"NY","Zip":"undef"},"latitude":"40.7332068","longitude":"-73.9946888"},{"address":{"StreetAddress":"155 E 22ND ST New York NY undef","City":"New York","State":"NY","Zip":"undef"},"latitude":"40.7384244","longitude":"-73.9840055"},{"address":{"StreetAddress":"61 FOURTH AVE New York NY undef","City":"New York","State":"NY","Zip":"undef"},"latitude":"40.6822459","longitude":"-73.9795061"},{"address":{"StreetAddress":"208 W 13TH ST New York NY undef","City":"New York","State":"NY","Zip":"undef"},"latitude":"40.7381228","longitude":"-74.0010304"},{"address":{"StreetAddress":"123 E 15TH ST New York NY undef","City":"New York","State":"NY","Zip":"undef"},"latitude":"40.7346341","longitude":"-73.9879773"},{"address":{"StreetAddress":"61 GRAMERCY PARK N New York NY undef","City":"New York","State":"NY","Zip":"undef"},"latitude":"40.7387068","longitude":"-73.986572"},{"address":{"StreetAddress":"155 E 22ND ST New York NY undef","City":"New York","State":"NY","Zip":"undef"},"latitude":"40.7384244","longitude":"-73.9840055"},{"address":{"StreetAddress":"127 E 22ND ST New York NY undef","City":"New York","State":"NY","Zip":"undef"},"latitude":"40.7390247","longitude":"-73.9854161"},{"address":{"StreetAddress":"602 E 9TH ST New York NY undef","City":"New York","State":"NY","Zip":"undef"},"latitude":"40.7260409","longitude":"-73.9800393"},{"address":{"StreetAddress":"125 W 14TH ST New York NY undef","City":"New York","State":"NY","Zip":"undef"},"latitude":"40.7379244","longitude":"-73.9976813"},{"address":{"StreetAddress":"346 W 20TH ST New York NY undef","City":"New York","State":"NY","Zip":"undef"},"latitude":"40.7441452","longitude":"-74.0019191"},{"address":{"StreetAddress":"125 W 14TH ST New York NY undef","City":"New York","State":"NY","Zip":"undef"},"latitude":"40.7379244","longitude":"-73.9976813"},{"address":{"StreetAddress":"414 E 14TH ST New York NY undef","City":"New York","State":"NY","Zip":"undef"},"latitude":"40.7309298","longitude":"-73.9819876"},{"address":{"StreetAddress":"119 NINTH AVE New York NY undef","City":"New York","State":"NY","Zip":"undef"},"latitude":"40.7432442","longitude":"-74.0039393"},{"address":{"StreetAddress":"202 W 24 ST New York NY undef","City":"New York","State":"NY","Zip":"undef"},"latitude":"40.7449478","longitude":"-73.995862"},{"address":{"StreetAddress":"28 GRAMERCY PARK S New York NY undef","City":"New York","State":"NY","Zip":"undef"},"latitude":"40.7371499","longitude":"-73.9853123"},{"address":{"StreetAddress":"50 E 7TH ST New York NY undef","City":"New York","State":"NY","Zip":"undef"},"latitude":"40.6519369","longitude":"-73.9750389"},{"address":{"StreetAddress":"273 BOWERY New York NY undef","City":"New York","State":"NY","Zip":"undef"},"latitude":"40.7236736","longitude":"-73.9924832"},{"address":{"StreetAddress":"802 BROADWAY New York NY undef","City":"New York","State":"NY","Zip":"undef"},"latitude":"40.7320395","longitude":"-73.991189"},{"address":{"StreetAddress":"28 GRAMMERCY PARK S New York NY undef","City":"New York","State":"NY","Zip":"undef"},"latitude":"40.7371499","longitude":"-73.9853123"},{"address":{"StreetAddress":"209 E 16TH ST New York NY undef","City":"New York","State":"NY","Zip":"undef"},"latitude":"40.6452634","longitude":"-73.9641398"},{"address":{"StreetAddress":"44 2ND AVE New York NY undef","City":"New York","State":"NY","Zip":"undef"},"latitude":"40.7251086","longitude":"-73.9899858"},{"address":{"StreetAddress":"229 W 14TH ST New York NY undef","City":"New York","State":"NY","Zip":"undef"},"latitude":"40.7392489","longitude":"-74.0008788"},{"address":{"StreetAddress":"229 W 14TH ST New York NY undef","City":"New York","State":"NY","Zip":"undef"},"latitude":"40.7392489","longitude":"-74.0008788"},{"address":{"StreetAddress":"208 W 13TH ST New York NY undef","City":"New York","State":"NY","Zip":"undef"},"latitude":"40.7381228","longitude":"-74.0010304"},{"address":{"StreetAddress":"28 GRAMERCY PARK S New York NY undef","City":"New York","State":"NY","Zip":"undef"},"latitude":"40.7371499","longitude":"-73.9853123"},{"address":{"StreetAddress":"208 W 13TH ST New York NY undef","City":"New York","State":"NY","Zip":"undef"},"latitude":"40.7381228","longitude":"-74.0010304"},{"address":{"StreetAddress":"307 W 26TH ST New York NY undef","City":"New York","State":"NY","Zip":"undef"},"latitude":"40.7474685","longitude":"-73.9974137"},{"address":{"StreetAddress":"343 W 25TH ST New York NY undef","City":"New York","State":"NY","Zip":"undef"},"latitude":"40.747411","longitude":"-73.9992698"},{"address":{"StreetAddress":"80 SAINT MARK New York NY undef","City":"New York","State":"NY","Zip":"undef"},"latitude":"40.6639307188879","longitude":"-73.9382749875207"},{"address":{"StreetAddress":"208 W 13TH ST New York NY undef","City":"New York","State":"NY","Zip":"undef"},"latitude":"40.7381228","longitude":"-74.0010304"},{"address":{"StreetAddress":"51 E 25TH ST New York NY undef","City":"New York","State":"NY","Zip":"undef"},"latitude":"40.7419488","longitude":"-73.9861549"},{"address":{"StreetAddress":"155 E 22ND ST New York NY undef","City":"New York","State":"NY","Zip":"undef"},"latitude":"40.7384244","longitude":"-73.9840055"},{"address":{"StreetAddress":"7 E 10TH ST New York NY undef","City":"New York","State":"NY","Zip":"undef"},"latitude":"40.6482599","longitude":"-73.9704806"},{"address":{"StreetAddress":"315 W 22ND ST New York NY undef","City":"New York","State":"NY","Zip":"undef"},"latitude":"40.7450587","longitude":"-73.9997029"},{"address":{"StreetAddress":"15 RUTHERFORD PL New York NY undef","City":"New York","State":"NY","Zip":"undef"},"latitude":"40.7337834","longitude":"-73.985098"},{"address":{"StreetAddress":"25 E 15TH CONFERENCE New York NY undef","City":"New York","State":"NY","Zip":"undef"},"latitude":"40.7361047","longitude":"-73.9914936"},{"address":{"StreetAddress":"175 9TH AVE New York NY undef","City":"New York","State":"NY","Zip":"undef"},"latitude":"40.6717748","longitude":"-73.9913909"},{"address":{"StreetAddress":"19 UNION SQ W New York NY undef","City":"New York","State":"NY","Zip":"undef"},"latitude":"40.7360864","longitude":"-73.9912277"},{"address":{"StreetAddress":"155 E 22ND ST New York NY undef","City":"New York","State":"NY","Zip":"undef"},"latitude":"40.7384244","longitude":"-73.9840055"},{"address":{"StreetAddress":"423 E 23RD ST New York NY undef","City":"New York","State":"NY","Zip":"undef"},"latitude":"40.6397204","longitude":"-73.9559472"},{"address":{"StreetAddress":"209 E 16TH ST New York NY undef","City":"New York","State":"NY","Zip":"undef"},"latitude":"40.7345135","longitude":"-73.9854432"},{"address":{"StreetAddress":"411 E 12TH ST New York NY undef","City":"New York","State":"NY","Zip":"undef"},"latitude":"40.729824","longitude":"-73.982816"},{"address":{"StreetAddress":"209 E 16TH ST New York NY undef","City":"New York","State":"NY","Zip":"undef"},"latitude":"40.6452634","longitude":"-73.9641398"},{"address":{"StreetAddress":"239 E 21ST ST New York NY undef","City":"New York","State":"NY","Zip":"undef"},"latitude":"40.7369141","longitude":"-73.9823276"},{"address":{"StreetAddress":"12 W 12TH ST New York NY undef","City":"New York","State":"NY","Zip":"undef"},"latitude":"40.7348062","longitude":"-73.9951634"},{"address":{"StreetAddress":"44 2ND AVE New York NY undef","City":"New York","State":"NY","Zip":"undef"},"latitude":"40.7251086","longitude":"-73.9899858"},{"address":{"StreetAddress":"208 W 13TH ST New York NY undef","City":"New York","State":"NY","Zip":"undef"},"latitude":"40.7381228","longitude":"-74.0010304"},{"address":{"StreetAddress":"12 W 11TH ST New York NY undef","City":"New York","State":"NY","Zip":"undef"},"latitude":"40.7341868","longitude":"-73.9957178"},{"address":{"StreetAddress":"116 W 11TH ST New York NY undef","City":"New York","State":"NY","Zip":"undef"},"latitude":"40.7355598","longitude":"-73.9990141"},{"address":{"StreetAddress":"80 5TH AVE New York NY undef","City":"New York","State":"NY","Zip":"undef"},"latitude":"40.7358709","longitude":"-73.9939317"},{"address":{"StreetAddress":"116 W 11TH ST New York NY undef","City":"New York","State":"NY","Zip":"undef"},"latitude":"40.7355598","longitude":"-73.9990141"},{"address":{"StreetAddress":"155 E 22ND ST New York NY undef","City":"New York","State":"NY","Zip":"undef"},"latitude":"40.7384244","longitude":"-73.9840055"},{"address":{"StreetAddress":"319 EASTR 24TH ST New York NY undef","City":"New York","State":"NY","Zip":"undef"},"latitude":"40.6639307188879","longitude":"-73.9382749875207"},{"address":{"StreetAddress":"10 E UNION SQ New York NY undef","City":"New York","State":"NY","Zip":"undef"},"latitude":"40.7348335","longitude":"-73.9897815"},{"address":{"StreetAddress":"206208 E 11TH ST New York NY undef","City":"New York","State":"NY","Zip":"undef"},"latitude":"40.6639307188879","longitude":"-73.9382749875207"},{"address":{"StreetAddress":"123 E 15TH ST New York NY undef","City":"New York","State":"NY","Zip":"undef"},"latitude":"40.7346341","longitude":"-73.9879773"},{"address":{"StreetAddress":"411 E 12TH ST New York NY undef","City":"New York","State":"NY","Zip":"undef"},"latitude":"40.729824","longitude":"-73.982816"},{"address":{"StreetAddress":"125 W 14TH ST New York NY undef","City":"New York","State":"NY","Zip":"undef"},"latitude":"40.7379244","longitude":"-73.9976813"},{"address":{"StreetAddress":"208 W 13TH ST New York NY undef","City":"New York","State":"NY","Zip":"undef"},"latitude":"40.7381228","longitude":"-74.0010304"},{"address":{"StreetAddress":"10 UNION SQ E New York NY undef","City":"New York","State":"NY","Zip":"undef"},"latitude":"40.7348335","longitude":"-73.9897815"},{"address":{"StreetAddress":"155 W 22ND ST New York NY undef","City":"New York","State":"NY","Zip":"undef"},"latitude":"40.7431787","longitude":"-73.9952777"},{"address":{"StreetAddress":"208 W 13TH ST New York NY undef","City":"New York","State":"NY","Zip":"undef"},"latitude":"40.7381228","longitude":"-74.0010304"},{"address":{"StreetAddress":"12 W 12TH ST New York NY undef","City":"New York","State":"NY","Zip":"undef"},"latitude":"40.7348062","longitude":"-73.9951634"},{"address":{"StreetAddress":"20 WASHINGTON SQ N New York NY undef","City":"New York","State":"NY","Zip":"undef"},"latitude":"40.7319436","longitude":"-73.9977667"},{"address":{"StreetAddress":"344 E 14TH ST New York NY undef","City":"New York","State":"NY","Zip":"undef"},"latitude":"40.7314102","longitude":"-73.9832013"},{"address":{"StreetAddress":"155 W 22ND ST New York NY undef","City":"New York","State":"NY","Zip":"undef"},"latitude":"40.7431787","longitude":"-73.9952777"},{"address":{"StreetAddress":"208 W 13TH ST New York NY undef","City":"New York","State":"NY","Zip":"undef"},"latitude":"40.7381228","longitude":"-74.0010304"},{"address":{"StreetAddress":"602 E 9TH ST New York NY undef","City":"New York","State":"NY","Zip":"undef"},"latitude":"40.7260409","longitude":"-73.9800393"},{"address":{"StreetAddress":"208 W 13TH ST New York NY undef","City":"New York","State":"NY","Zip":"undef"},"latitude":"40.7381228","longitude":"-74.0010304"},{"address":{"StreetAddress":"208 W 13TH ST New York NY undef","City":"New York","State":"NY","Zip":"undef"},"latitude":"40.7381228","longitude":"-74.0010304"},{"address":{"StreetAddress":"19 UNION SQ W New York NY undef","City":"New York","State":"NY","Zip":"undef"},"latitude":"40.7360864","longitude":"-73.9912277"},{"address":{"StreetAddress":"173 E 3RD ST New York NY undef","City":"New York","State":"NY","Zip":"undef"},"latitude":"40.7233431","longitude":"-73.9843062"},{"address":{"StreetAddress":"50 E 7TH ST New York NY undef","City":"New York","State":"NY","Zip":"undef"},"latitude":"40.7276522","longitude":"-73.9875923"},{"address":{"StreetAddress":"252 W 46TH ST New York NY undef","City":"New York","State":"NY","Zip":"undef"},"latitude":"40.7593831","longitude":"-73.9872329"},{"address":{"StreetAddress":"303 W 42ND ST New York NY undef","City":"New York","State":"NY","Zip":"undef"},"latitude":"40.7575385","longitude":"-73.9901368"},{"address":{"StreetAddress":"303 W 42ND ST New York NY undef","City":"New York","State":"NY","Zip":"undef"},"latitude":"40.7575385","longitude":"-73.9901368"},{"address":{"StreetAddress":"305 7TH AVE New York NY undef","City":"New York","State":"NY","Zip":"undef"},"latitude":"40.7467107","longitude":"-73.9935208"},{"address":{"StreetAddress":"1 W 53RD ST New York NY undef","City":"New York","State":"NY","Zip":"undef"},"latitude":"40.7608523","longitude":"-73.9765938"},{"address":{"StreetAddress":"303 W 42ND ST New York NY undef","City":"New York","State":"NY","Zip":"undef"},"latitude":"40.7575385","longitude":"-73.9901368"},{"address":{"StreetAddress":"133 W 46TH ST New York NY undef","City":"New York","State":"NY","Zip":"undef"},"latitude":"40.6589343","longitude":"-73.9348705"},{"address":{"StreetAddress":"441 W 26TH ST New York NY undef","City":"New York","State":"NY","Zip":"undef"},"latitude":"40.7495486","longitude":"-74.0015106"},{"address":{"StreetAddress":"446 W 33RD ST New York NY undef","City":"New York","State":"NY","Zip":"undef"},"latitude":"40.753496","longitude":"-73.9989428"},{"address":{"StreetAddress":"252 W 46TH ST New York NY undef","City":"New York","State":"NY","Zip":"undef"},"latitude":"40.7593831","longitude":"-73.9872329"},{"address":{"StreetAddress":"252 W 46TH ST New York NY undef","City":"New York","State":"NY","Zip":"undef"},"latitude":"40.7593831","longitude":"-73.9872329"},{"address":{"StreetAddress":"252 W 46TH ST New York NY undef","City":"New York","State":"NY","Zip":"undef"},"latitude":"40.7593831","longitude":"-73.9872329"},{"address":{"StreetAddress":"339 W 47TH ST New York NY undef","City":"New York","State":"NY","Zip":"undef"},"latitude":"40.7612077","longitude":"-73.9891128"},{"address":{"StreetAddress":"303 W 42ND ST New York NY undef","City":"New York","State":"NY","Zip":"undef"},"latitude":"40.7575385","longitude":"-73.9901368"},{"address":{"StreetAddress":"139 W 31ST ST New York NY undef","City":"New York","State":"NY","Zip":"undef"},"latitude":"40.647412","longitude":"-73.9480599"},{"address":{"StreetAddress":"422 W 57TH ST New York NY undef","City":"New York","State":"NY","Zip":"undef"},"latitude":"40.7682311","longitude":"-73.9868768"},{"address":{"StreetAddress":"211 W 30TH ST New York NY undef","City":"New York","State":"NY","Zip":"undef"},"latitude":"40.6639307188879","longitude":"-73.9382749875207"},{"address":{"StreetAddress":"252 W 46TH ST New York NY undef","City":"New York","State":"NY","Zip":"undef"},"latitude":"40.7593831","longitude":"-73.9872329"},{"address":{"StreetAddress":"1 W 53RD ST New York NY undef","City":"New York","State":"NY","Zip":"undef"},"latitude":"40.7608523","longitude":"-73.9765938"},{"address":{"StreetAddress":"422 W 57TH ST New York NY undef","City":"New York","State":"NY","Zip":"undef"},"latitude":"40.7682311","longitude":"-73.9868768"},{"address":{"StreetAddress":"7 W 55TH ST New York NY undef","City":"New York","State":"NY","Zip":"undef"},"latitude":"40.7618823","longitude":"-73.9751297"},{"address":{"StreetAddress":"252 W 46TH ST New York NY undef","City":"New York","State":"NY","Zip":"undef"},"latitude":"40.7593831","longitude":"-73.9872329"},{"address":{"StreetAddress":"729 7TH AVE New York NY undef","City":"New York","State":"NY","Zip":"undef"},"latitude":"40.7601119","longitude":"-73.9837538"},{"address":{"StreetAddress":"538 W 47TH ST New York NY undef","City":"New York","State":"NY","Zip":"undef"},"latitude":"40.7634021","longitude":"-73.9948352"},{"address":{"StreetAddress":"1000 TENTH AVE New York NY undef","City":"New York","State":"NY","Zip":"undef"},"latitude":"40.6639307188879","longitude":"-73.9382749875207"},{"address":{"StreetAddress":"303 W 42ND ST New York NY undef","City":"New York","State":"NY","Zip":"undef"},"latitude":"40.7575385","longitude":"-73.9901368"},{"address":{"StreetAddress":"252 W 46TH ST New York NY undef","City":"New York","State":"NY","Zip":"undef"},"latitude":"40.7593831","longitude":"-73.9872329"},{"address":{"StreetAddress":"307 W 26TH ST New York NY undef","City":"New York","State":"NY","Zip":"undef"},"latitude":"40.7474685","longitude":"-73.9974137"},{"address":{"StreetAddress":"405 W 59TH ST New York NY undef","City":"New York","State":"NY","Zip":"undef"},"latitude":"40.7697538","longitude":"-73.9857965"},{"address":{"StreetAddress":"303 W 42ND ST New York NY undef","City":"New York","State":"NY","Zip":"undef"},"latitude":"40.7575385","longitude":"-73.9901368"},{"address":{"StreetAddress":"422 W 57TH ST New York NY undef","City":"New York","State":"NY","Zip":"undef"},"latitude":"40.7682311","longitude":"-73.9868768"},{"address":{"StreetAddress":"133 W 46TH ST New York NY undef","City":"New York","State":"NY","Zip":"undef"},"latitude":"40.6589343","longitude":"-73.9348705"},{"address":{"StreetAddress":"133 W 46TH ST New York NY undef","City":"New York","State":"NY","Zip":"undef"},"latitude":"40.6589343","longitude":"-73.9348705"},{"address":{"StreetAddress":"303 W 42ND ST New York NY undef","City":"New York","State":"NY","Zip":"undef"},"latitude":"40.7575385","longitude":"-73.9901368"},{"address":{"StreetAddress":"296 9TH AVE New York NY undef","City":"New York","State":"NY","Zip":"undef"},"latitude":"40.6639307188879","longitude":"-73.9382749875207"},{"address":{"StreetAddress":"139 W 31ST ST New York NY undef","City":"New York","State":"NY","Zip":"undef"},"latitude":"40.647412","longitude":"-73.9480599"},{"address":{"StreetAddress":"1 W 53RD ST New York NY undef","City":"New York","State":"NY","Zip":"undef"},"latitude":"40.7608523","longitude":"-73.9765938"},{"address":{"StreetAddress":"484 W 43RD ST New York NY undef","City":"New York","State":"NY","Zip":"undef"},"latitude":"40.7599913","longitude":"-73.9948326"},{"address":{"StreetAddress":"7 W 55TH ST New York NY undef","City":"New York","State":"NY","Zip":"undef"},"latitude":"40.7618823","longitude":"-73.9751297"},{"address":{"StreetAddress":"252 W 46TH ST New York NY undef","City":"New York","State":"NY","Zip":"undef"},"latitude":"40.7593831","longitude":"-73.9872329"},{"address":{"StreetAddress":"252 W 46TH ST New York NY undef","City":"New York","State":"NY","Zip":"undef"},"latitude":"40.7593831","longitude":"-73.9872329"},{"address":{"StreetAddress":"4 W 43RD ST New York NY undef","City":"New York","State":"NY","Zip":"undef"},"latitude":"40.7543885","longitude":"-73.9812083"},{"address":{"StreetAddress":"252 W 46TH ST New York NY undef","City":"New York","State":"NY","Zip":"undef"},"latitude":"40.7593831","longitude":"-73.9872329"},{"address":{"StreetAddress":"296 NINTH AVE New York NY undef","City":"New York","State":"NY","Zip":"undef"},"latitude":"40.6639307188879","longitude":"-73.9382749875207"},{"address":{"StreetAddress":"1 W 53RD ST New York NY undef","City":"New York","State":"NY","Zip":"undef"},"latitude":"40.7608523","longitude":"-73.9765938"},{"address":{"StreetAddress":"210 W 31ST ST New York NY undef","City":"New York","State":"NY","Zip":"undef"},"latitude":"40.6560325","longitude":"-73.9999704"},{"address":{"StreetAddress":"422 W 57TH ST New York NY undef","City":"New York","State":"NY","Zip":"undef"},"latitude":"40.7682311","longitude":"-73.9868768"},{"address":{"StreetAddress":"252 W 46TH ST New York NY undef","City":"New York","State":"NY","Zip":"undef"},"latitude":"40.7593831","longitude":"-73.9872329"},{"address":{"StreetAddress":"134 W 29TH ST New York NY undef","City":"New York","State":"NY","Zip":"undef"},"latitude":"40.7472463","longitude":"-73.9917061"},{"address":{"StreetAddress":"1000 TENTH AVE New York NY undef","City":"New York","State":"NY","Zip":"undef"},"latitude":"40.6639307188879","longitude":"-73.9382749875207"},{"address":{"StreetAddress":"446 W 33RD ST New York NY undef","City":"New York","State":"NY","Zip":"undef"},"latitude":"40.753496","longitude":"-73.9989428"},{"address":{"StreetAddress":"423 W 46TH ST New York NY undef","City":"New York","State":"NY","Zip":"undef"},"latitude":"40.6483729","longitude":"-74.009462"},{"address":{"StreetAddress":"252 W 46TH ST New York NY undef","City":"New York","State":"NY","Zip":"undef"},"latitude":"40.7593831","longitude":"-73.9872329"},{"address":{"StreetAddress":"122 E 37TH ST New York NY undef","City":"New York","State":"NY","Zip":"undef"},"latitude":"40.7483929","longitude":"-73.9787906"},{"address":{"StreetAddress":"30 E 35TH ST New York NY undef","City":"New York","State":"NY","Zip":"undef"},"latitude":"40.7496221","longitude":"-73.9855348"},{"address":{"StreetAddress":"350 E 56TH ST New York NY undef","City":"New York","State":"NY","Zip":"undef"},"latitude":"40.757654","longitude":"-73.963834"},{"address":{"StreetAddress":"619 LEXINGTON AVE New York NY undef","City":"New York","State":"NY","Zip":"undef"},"latitude":"40.7588016","longitude":"-73.9704542"},{"address":{"StreetAddress":"122 E 37TH ST New York NY undef","City":"New York","State":"NY","Zip":"undef"},"latitude":"40.7483929","longitude":"-73.9787906"},{"address":{"StreetAddress":"28 E 35TH ST New York NY undef","City":"New York","State":"NY","Zip":"undef"},"latitude":"40.7496065","longitude":"-73.9854965"},{"address":{"StreetAddress":"350 E 56TH ST New York NY undef","City":"New York","State":"NY","Zip":"undef"},"latitude":"40.757654","longitude":"-73.963834"},{"address":{"StreetAddress":"283 LEXINGTON AVE New York NY undef","City":"New York","State":"NY","Zip":"undef"},"latitude":"40.7479969","longitude":"-73.9783809"},{"address":{"StreetAddress":"122 E 37TH ST New York NY undef","City":"New York","State":"NY","Zip":"undef"},"latitude":"40.7483929","longitude":"-73.9787906"},{"address":{"StreetAddress":"619 LEXINGTON AVE New York NY undef","City":"New York","State":"NY","Zip":"undef"},"latitude":"40.7588016","longitude":"-73.9704542"},{"address":{"StreetAddress":"141 E 43RD ST New York NY undef","City":"New York","State":"NY","Zip":"undef"},"latitude":"40.7518754","longitude":"-73.9747248"},{"address":{"StreetAddress":"122 E 37TH ST New York NY undef","City":"New York","State":"NY","Zip":"undef"},"latitude":"40.7483929","longitude":"-73.9787906"},{"address":{"StreetAddress":"122 E 37TH ST New York NY undef","City":"New York","State":"NY","Zip":"undef"},"latitude":"40.7483929","longitude":"-73.9787906"},{"address":{"StreetAddress":"141 E 43RD ST New York NY undef","City":"New York","State":"NY","Zip":"undef"},"latitude":"40.7518754","longitude":"-73.9747248"},{"address":{"StreetAddress":"209 MADISON AVE New York NY undef","City":"New York","State":"NY","Zip":"undef"},"latitude":"40.7486487","longitude":"-73.9821254"},{"address":{"StreetAddress":"122 E 37TH ST New York NY undef","City":"New York","State":"NY","Zip":"undef"},"latitude":"40.7483929","longitude":"-73.9787906"},{"address":{"StreetAddress":"619 LEXINGTON AVE New York NY undef","City":"New York","State":"NY","Zip":"undef"},"latitude":"40.6894374","longitude":"-73.9367705"},{"address":{"StreetAddress":"240 E 31ST ST New York NY undef","City":"New York","State":"NY","Zip":"undef"},"latitude":"40.7430963","longitude":"-73.9780494"},{"address":{"StreetAddress":"114 E 35TH ST New York NY undef","City":"New York","State":"NY","Zip":"undef"},"latitude":"40.7473169","longitude":"-73.9800724"},{"address":{"StreetAddress":"230 E 60TH ST New York NY undef","City":"New York","State":"NY","Zip":"undef"},"latitude":"40.7615607","longitude":"-73.9649474"},{"address":{"StreetAddress":"244 E 58TH ST New York NY undef","City":"New York","State":"NY","Zip":"undef"},"latitude":"40.6492925","longitude":"-73.9225408"},{"address":{"StreetAddress":"619 LEXINGTON AVE New York NY undef","City":"New York","State":"NY","Zip":"undef"},"latitude":"40.6894374","longitude":"-73.9367705"},{"address":{"StreetAddress":"325 PARK AVE New York NY undef","City":"New York","State":"NY","Zip":"undef"},"latitude":"40.7574552","longitude":"-73.9733937"},{"address":{"StreetAddress":"236 E 31ST ST New York NY undef","City":"New York","State":"NY","Zip":"undef"},"latitude":"40.74314","longitude":"-73.9781525"},{"address":{"StreetAddress":"308 E 55TH ST New York NY undef","City":"New York","State":"NY","Zip":"undef"},"latitude":"40.6501686","longitude":"-73.9254937"},{"address":{"StreetAddress":"244 E 58TH ST New York NY undef","City":"New York","State":"NY","Zip":"undef"},"latitude":"40.6492925","longitude":"-73.9225408"},{"address":{"StreetAddress":"244 E 58TH ST New York NY undef","City":"New York","State":"NY","Zip":"undef"},"latitude":"40.6492925","longitude":"-73.9225408"},{"address":{"StreetAddress":"109 E 50TH ST New York NY undef","City":"New York","State":"NY","Zip":"undef"},"latitude":"40.7569178","longitude":"-73.97309"},{"address":{"StreetAddress":"207 W 96TH ST New York NY undef","City":"New York","State":"NY","Zip":"undef"},"latitude":"40.7945161","longitude":"-73.9710419"},{"address":{"StreetAddress":"120 W 69TH ST New York NY undef","City":"New York","State":"NY","Zip":"undef"},"latitude":"40.7756982","longitude":"-73.9810333"},{"address":{"StreetAddress":"422 W 57TH ST New York NY undef","City":"New York","State":"NY","Zip":"undef"},"latitude":"40.7682311","longitude":"-73.9868768"},{"address":{"StreetAddress":"164 W 74TH ST New York NY undef","City":"New York","State":"NY","Zip":"undef"},"latitude":"40.7796117","longitude":"-73.9801807"},{"address":{"StreetAddress":"207 W 96TH ST New York NY undef","City":"New York","State":"NY","Zip":"undef"},"latitude":"40.7945161","longitude":"-73.9710419"},{"address":{"StreetAddress":"144 W 90TH ST New York NY undef","City":"New York","State":"NY","Zip":"undef"},"latitude":"40.7898068","longitude":"-73.9723737"},{"address":{"StreetAddress":"141 W 73RD ST New York NY undef","City":"New York","State":"NY","Zip":"undef"},"latitude":"40.7789036","longitude":"-73.9799533"},{"address":{"StreetAddress":"4 W 76TH IN ST New York NY undef","City":"New York","State":"NY","Zip":"undef"},"latitude":"40.7788736","longitude":"-73.9745891"},{"address":{"StreetAddress":"221 W 107TH ST New York NY undef","City":"New York","State":"NY","Zip":"undef"},"latitude":"40.8017795","longitude":"-73.9665393"},{"address":{"StreetAddress":"207 W 96TH ST New York NY undef","City":"New York","State":"NY","Zip":"undef"},"latitude":"40.7945161","longitude":"-73.9710419"},{"address":{"StreetAddress":"215 W 82ND ST New York NY undef","City":"New York","State":"NY","Zip":"undef"},"latitude":"40.6639307188879","longitude":"-73.9382749875207"},{"address":{"StreetAddress":"601 W 114TH ST New York NY undef","City":"New York","State":"NY","Zip":"undef"},"latitude":"40.8069051","longitude":"-73.965058"},{"address":{"StreetAddress":"CENTRAL PARK W New York NY undef","City":"New York","State":"NY","Zip":"undef"},"latitude":"40.6639307188879","longitude":"-73.9382749875207"},{"address":{"StreetAddress":"5 W 63RD ST New York NY undef","City":"New York","State":"NY","Zip":"undef"},"latitude":"40.7708644","longitude":"-73.9806413"},{"address":{"StreetAddress":"4 W 76TH ST New York NY undef","City":"New York","State":"NY","Zip":"undef"},"latitude":"40.7788736","longitude":"-73.9745891"},{"address":{"StreetAddress":"160 CENTRAL PARK W New York NY undef","City":"New York","State":"NY","Zip":"undef"},"latitude":"40.7787712","longitude":"-73.9743066"},{"address":{"StreetAddress":"152 W 66TH ST New York NY undef","City":"New York","State":"NY","Zip":"undef"},"latitude":"40.7744405","longitude":"-73.9838262"},{"address":{"StreetAddress":"3 W 95TH ST New York NY undef","City":"New York","State":"NY","Zip":"undef"},"latitude":"40.7912379","longitude":"-73.9655109"},{"address":{"StreetAddress":"251 W 80TH ST New York NY undef","City":"New York","State":"NY","Zip":"undef"},"latitude":"40.7848713","longitude":"-73.9800524"},{"address":{"StreetAddress":"111 W 71ST ST New York NY undef","City":"New York","State":"NY","Zip":"undef"},"latitude":"40.7769516","longitude":"-73.9795507"},{"address":{"StreetAddress":"5 W 63RD ST New York NY undef","City":"New York","State":"NY","Zip":"undef"},"latitude":"40.7708644","longitude":"-73.9806413"},{"address":{"StreetAddress":"5 W 63RD ST New York NY undef","City":"New York","State":"NY","Zip":"undef"},"latitude":"40.7708644","longitude":"-73.9806413"},{"address":{"StreetAddress":"207 W 96TH ST New York NY undef","City":"New York","State":"NY","Zip":"undef"},"latitude":"40.7945161","longitude":"-73.9710419"},{"address":{"StreetAddress":"26 W 84TH ST New York NY undef","City":"New York","State":"NY","Zip":"undef"},"latitude":"40.7844228","longitude":"-73.9716168"},{"address":{"StreetAddress":"200 W 97TH ST New York NY undef","City":"New York","State":"NY","Zip":"undef"},"latitude":"40.6639307188879","longitude":"-73.9382749875207"},{"address":{"StreetAddress":"218 W 108TH ST New York NY undef","City":"New York","State":"NY","Zip":"undef"},"latitude":"40.8021037","longitude":"-73.9658778"},{"address":{"StreetAddress":"125 W 104TH ST New York NY undef","City":"New York","State":"NY","Zip":"undef"},"latitude":"40.7985878","longitude":"-73.9649967"},{"address":{"StreetAddress":"141 W 73RD ST New York NY undef","City":"New York","State":"NY","Zip":"undef"},"latitude":"40.7789036","longitude":"-73.9799533"},{"address":{"StreetAddress":"236 W 73RD ST New York NY undef","City":"New York","State":"NY","Zip":"undef"},"latitude":"40.7796494","longitude":"-73.982239"},{"address":{"StreetAddress":"165 W 105TH ST New York NY undef","City":"New York","State":"NY","Zip":"undef"},"latitude":"40.7996866","longitude":"-73.9657282"},{"address":{"StreetAddress":"207 W 96TH ST New York NY undef","City":"New York","State":"NY","Zip":"undef"},"latitude":"40.7945161","longitude":"-73.9710419"},{"address":{"StreetAddress":"207 W 96TH ST New York NY undef","City":"New York","State":"NY","Zip":"undef"},"latitude":"40.7945161","longitude":"-73.9710419"},{"address":{"StreetAddress":"2504 BROADWAY New York NY undef","City":"New York","State":"NY","Zip":"undef"},"latitude":"40.7927534","longitude":"-73.972842"},{"address":{"StreetAddress":"405 W 114TH ST New York NY undef","City":"New York","State":"NY","Zip":"undef"},"latitude":"40.7946083","longitude":"-73.9358608"},{"address":{"StreetAddress":"368 W END AVE New York NY undef","City":"New York","State":"NY","Zip":"undef"},"latitude":"40.783225","longitude":"-73.9817572"},{"address":{"StreetAddress":"225 W 99TH ST New York NY undef","City":"New York","State":"NY","Zip":"undef"},"latitude":"40.7964452","longitude":"-73.9694226"},{"address":{"StreetAddress":"251 W 100TH ST New York NY undef","City":"New York","State":"NY","Zip":"undef"},"latitude":"40.7977791","longitude":"-73.9709911"},{"address":{"StreetAddress":"207 W 96TH ST New York NY undef","City":"New York","State":"NY","Zip":"undef"},"latitude":"40.7945161","longitude":"-73.9710419"},{"address":{"StreetAddress":"26 W 84TH ST New York NY undef","City":"New York","State":"NY","Zip":"undef"},"latitude":"40.7844228","longitude":"-73.9716168"},{"address":{"StreetAddress":"5 W 63RD ST New York NY undef","City":"New York","State":"NY","Zip":"undef"},"latitude":"40.7708644","longitude":"-73.9806413"},{"address":{"StreetAddress":"552 W END AVE New York NY undef","City":"New York","State":"NY","Zip":"undef"},"latitude":"40.78931","longitude":"-73.9773114"},{"address":{"StreetAddress":"164 W 74 ST New York NY undef","City":"New York","State":"NY","Zip":"undef"},"latitude":"40.7796117","longitude":"-73.9801807"},{"address":{"StreetAddress":"340 W 85TH ST New York NY undef","City":"New York","State":"NY","Zip":"undef"},"latitude":"40.7887343","longitude":"-73.9798639"},{"address":{"StreetAddress":"368 W END AVE New York NY undef","City":"New York","State":"NY","Zip":"undef"},"latitude":"40.783225","longitude":"-73.9817572"},{"address":{"StreetAddress":"152 W 71ST ST New York NY undef","City":"New York","State":"NY","Zip":"undef"},"latitude":"40.7774259","longitude":"-73.9812051"},{"address":{"StreetAddress":"5 W 63RD ST New York NY undef","City":"New York","State":"NY","Zip":"undef"},"latitude":"40.7708644","longitude":"-73.9806413"},{"address":{"StreetAddress":"131 W 72ND ST New York NY undef","City":"New York","State":"NY","Zip":"undef"},"latitude":"40.7780247","longitude":"-73.9798344"},{"address":{"StreetAddress":"207 W 96TH ST New York NY undef","City":"New York","State":"NY","Zip":"undef"},"latitude":"40.7945161","longitude":"-73.9710419"},{"address":{"StreetAddress":"152 W 71ST ST New York NY undef","City":"New York","State":"NY","Zip":"undef"},"latitude":"40.7774259","longitude":"-73.9812051"},{"address":{"StreetAddress":"30 W 68TH ST New York NY undef","City":"New York","State":"NY","Zip":"undef"},"latitude":"40.7740859","longitude":"-73.979107"},{"address":{"StreetAddress":"207 W 96TH ST New York NY undef","City":"New York","State":"NY","Zip":"undef"},"latitude":"40.7945161","longitude":"-73.9710419"},{"address":{"StreetAddress":"263 W 86TH ST New York NY undef","City":"New York","State":"NY","Zip":"undef"},"latitude":"40.7887918","longitude":"-73.9772649"},{"address":{"StreetAddress":"306 W 102ND ST New York NY undef","City":"New York","State":"NY","Zip":"undef"},"latitude":"40.7992334","longitude":"-73.9710638"},{"address":{"StreetAddress":"152 W 71ST ST New York NY undef","City":"New York","State":"NY","Zip":"undef"},"latitude":"40.7774259","longitude":"-73.9812051"},{"address":{"StreetAddress":"26 W 84TH ST New York NY undef","City":"New York","State":"NY","Zip":"undef"},"latitude":"40.7844228","longitude":"-73.9716168"},{"address":{"StreetAddress":"595 COLUMBUS AVE New York NY undef","City":"New York","State":"NY","Zip":"undef"},"latitude":"40.7879892","longitude":"-73.9707609"},{"address":{"StreetAddress":"306 W 102ND ST New York NY undef","City":"New York","State":"NY","Zip":"undef"},"latitude":"40.7992334","longitude":"-73.9710638"},{"address":{"StreetAddress":"213 W 82ND ST New York NY undef","City":"New York","State":"NY","Zip":"undef"},"latitude":"40.7760114","longitude":"-73.9550312"},{"address":{"StreetAddress":"152 W 71ST ST New York NY undef","City":"New York","State":"NY","Zip":"undef"},"latitude":"40.7774259","longitude":"-73.9812051"},{"address":{"StreetAddress":"152 W 71ST ST New York NY undef","City":"New York","State":"NY","Zip":"undef"},"latitude":"40.7774259","longitude":"-73.9812051"},{"address":{"StreetAddress":"152 W 71ST ST New York NY undef","City":"New York","State":"NY","Zip":"undef"},"latitude":"40.7774259","longitude":"-73.9812051"},{"address":{"StreetAddress":"160 CENTRAL PARK W New York NY undef","City":"New York","State":"NY","Zip":"undef"},"latitude":"40.7787712","longitude":"-73.9743066"},{"address":{"StreetAddress":"207 W 96TH ST New York NY undef","City":"New York","State":"NY","Zip":"undef"},"latitude":"40.7945161","longitude":"-73.9710419"},{"address":{"StreetAddress":"351 E 74TH ST New York NY undef","City":"New York","State":"NY","Zip":"undef"},"latitude":"40.7694194","longitude":"-73.9555151"},{"address":{"StreetAddress":"48 E 80TH ST New York NY undef","City":"New York","State":"NY","Zip":"undef"},"latitude":"40.7767263","longitude":"-73.9612366"},{"address":{"StreetAddress":"184 E 76TH ST New York NY undef","City":"New York","State":"NY","Zip":"undef"},"latitude":"40.6639307188879","longitude":"-73.9382749875207"},{"address":{"StreetAddress":"351 E 74TH ST New York NY undef","City":"New York","State":"NY","Zip":"undef"},"latitude":"40.7694194","longitude":"-73.9555151"},{"address":{"StreetAddress":"1393 YORK AVE New York NY undef","City":"New York","State":"NY","Zip":"undef"},"latitude":"40.768415","longitude":"-73.9528341"},{"address":{"StreetAddress":"520 PARK AVE New York NY undef","City":"New York","State":"NY","Zip":"undef"},"latitude":"40.6968483","longitude":"-73.9549879"},{"address":{"StreetAddress":"337 E 74TH ST New York NY undef","City":"New York","State":"NY","Zip":"undef"},"latitude":"40.7696836","longitude":"-73.9561119"},{"address":{"StreetAddress":"1157 LEXINGTON AVE New York NY undef","City":"New York","State":"NY","Zip":"undef"},"latitude":"40.7754455","longitude":"-73.9583638"},{"address":{"StreetAddress":"420 E 76TH ST New York NY undef","City":"New York","State":"NY","Zip":"undef"},"latitude":"40.7697705","longitude":"-73.9529077"},{"address":{"StreetAddress":"230 E 90TH ST New York NY undef","City":"New York","State":"NY","Zip":"undef"},"latitude":"40.780841","longitude":"-73.9510956"},{"address":{"StreetAddress":"65 E 89TH ST New York NY undef","City":"New York","State":"NY","Zip":"undef"},"latitude":"40.78259","longitude":"-73.9566571"},{"address":{"StreetAddress":"865 MADISON AVE New York NY undef","City":"New York","State":"NY","Zip":"undef"},"latitude":"40.7713251","longitude":"-73.9655852"},{"address":{"StreetAddress":"1296 LEXINGTON AVE New York NY undef","City":"New York","State":"NY","Zip":"undef"},"latitude":"40.6639307188879","longitude":"-73.9382749875207"},{"address":{"StreetAddress":"351 E 74TH ST New York NY undef","City":"New York","State":"NY","Zip":"undef"},"latitude":"40.7694194","longitude":"-73.9555151"},{"address":{"StreetAddress":"1157 LEXINGTON AVE New York NY undef","City":"New York","State":"NY","Zip":"undef"},"latitude":"40.7754455","longitude":"-73.9583638"},{"address":{"StreetAddress":"351 E 74TH ST New York NY undef","City":"New York","State":"NY","Zip":"undef"},"latitude":"40.7694194","longitude":"-73.9555151"},{"address":{"StreetAddress":"351 E 74TH ST New York NY undef","City":"New York","State":"NY","Zip":"undef"},"latitude":"40.7694194","longitude":"-73.9555151"},{"address":{"StreetAddress":"65 E 89TH ST New York NY undef","City":"New York","State":"NY","Zip":"undef"},"latitude":"40.78259","longitude":"-73.9566571"},{"address":{"StreetAddress":"65 E 89TH ST New York NY undef","City":"New York","State":"NY","Zip":"undef"},"latitude":"40.78259","longitude":"-73.9566571"},{"address":{"StreetAddress":"351 E 74TH ST New York NY undef","City":"New York","State":"NY","Zip":"undef"},"latitude":"40.7694194","longitude":"-73.9555151"},{"address":{"StreetAddress":"135 E 96TH ST New York NY undef","City":"New York","State":"NY","Zip":"undef"},"latitude":"40.7862757","longitude":"-73.951491"},{"address":{"StreetAddress":"351 E 74TH ST New York NY undef","City":"New York","State":"NY","Zip":"undef"},"latitude":"40.7694194","longitude":"-73.9555151"},{"address":{"StreetAddress":"2 E 90TH ST New York NY undef","City":"New York","State":"NY","Zip":"undef"},"latitude":"40.7836928","longitude":"-73.9578694"},{"address":{"StreetAddress":"1157 LEXINGTON AVE New York NY undef","City":"New York","State":"NY","Zip":"undef"},"latitude":"40.7754455","longitude":"-73.9583638"},{"address":{"StreetAddress":"420 E 76TH ST New York NY undef","City":"New York","State":"NY","Zip":"undef"},"latitude":"40.7697705","longitude":"-73.9529077"},{"address":{"StreetAddress":"351 E 74TH ST New York NY undef","City":"New York","State":"NY","Zip":"undef"},"latitude":"40.7694194","longitude":"-73.9555151"},{"address":{"StreetAddress":"351 E 74TH ST New York NY undef","City":"New York","State":"NY","Zip":"undef"},"latitude":"40.7694194","longitude":"-73.9555151"},{"address":{"StreetAddress":"1285 MADISON AVE New York NY undef","City":"New York","State":"NY","Zip":"undef"},"latitude":"40.7843189","longitude":"-73.9560924"},{"address":{"StreetAddress":"48 E 84TH ST New York NY undef","City":"New York","State":"NY","Zip":"undef"},"latitude":"40.7790604","longitude":"-73.9588788"},{"address":{"StreetAddress":"408 E 82ND ST New York NY undef","City":"New York","State":"NY","Zip":"undef"},"latitude":"40.7738528","longitude":"-73.9504699"},{"address":{"StreetAddress":"351 E 74TH ST New York NY undef","City":"New York","State":"NY","Zip":"undef"},"latitude":"40.7694194","longitude":"-73.9555151"},{"address":{"StreetAddress":"351 E 74TH ST New York NY undef","City":"New York","State":"NY","Zip":"undef"},"latitude":"40.7694194","longitude":"-73.9555151"},{"address":{"StreetAddress":"125 E 85TH ST New York NY undef","City":"New York","State":"NY","Zip":"undef"},"latitude":"40.7790514","longitude":"-73.956386"},{"address":{"StreetAddress":"351 E 74TH ST New York NY undef","City":"New York","State":"NY","Zip":"undef"},"latitude":"40.7694194","longitude":"-73.9555151"},{"address":{"StreetAddress":"351 E 74TH ST New York NY undef","City":"New York","State":"NY","Zip":"undef"},"latitude":"40.7694194","longitude":"-73.9555151"},{"address":{"StreetAddress":"865 MADISON AVE New York NY undef","City":"New York","State":"NY","Zip":"undef"},"latitude":"40.7713251","longitude":"-73.9655852"},{"address":{"StreetAddress":"62 E 92ND ST New York NY undef","City":"New York","State":"NY","Zip":"undef"},"latitude":"40.6627546","longitude":"-73.928788"},{"address":{"StreetAddress":"351 E 74TH ST New York NY undef","City":"New York","State":"NY","Zip":"undef"},"latitude":"40.7694194","longitude":"-73.9555151"},{"address":{"StreetAddress":"420 E 87TH ST New York NY undef","City":"New York","State":"NY","Zip":"undef"},"latitude":"40.7770465","longitude":"-73.9479432"},{"address":{"StreetAddress":"593 PARK AVE New York NY undef","City":"New York","State":"NY","Zip":"undef"},"latitude":"40.765841","longitude":"-73.9673386"},{"address":{"StreetAddress":"65 E 89TH ST New York NY undef","City":"New York","State":"NY","Zip":"undef"},"latitude":"40.78259","longitude":"-73.9566571"},{"address":{"StreetAddress":"865 MADISON AVE New York NY undef","City":"New York","State":"NY","Zip":"undef"},"latitude":"40.7713251","longitude":"-73.9655852"},{"address":{"StreetAddress":"CHURCH OF THE GOOD SHEPARD New York NY undef","City":"New York","State":"NY","Zip":"undef"},"latitude":"40.6639307188879","longitude":"-73.9382749875207"},{"address":{"StreetAddress":"413 E 79TH ST New York NY undef","City":"New York","State":"NY","Zip":"undef"},"latitude":"40.7721222","longitude":"-73.9517608"},{"address":{"StreetAddress":"351 E 74TH ST New York NY undef","City":"New York","State":"NY","Zip":"undef"},"latitude":"40.7694194","longitude":"-73.9555151"},{"address":{"StreetAddress":"310 E 67TH ST New York NY undef","City":"New York","State":"NY","Zip":"undef"},"latitude":"40.7651821","longitude":"-73.9599207"},{"address":{"StreetAddress":"331 E 70TH ST New York NY undef","City":"New York","State":"NY","Zip":"undef"},"latitude":"40.766948","longitude":"-73.9577722"},{"address":{"StreetAddress":"411 E 68TH ST New York NY undef","City":"New York","State":"NY","Zip":"undef"},"latitude":"40.7651081","longitude":"-73.957215"},{"address":{"StreetAddress":"2 E 90TH ST New York NY undef","City":"New York","State":"NY","Zip":"undef"},"latitude":"40.7836928","longitude":"-73.9578694"},{"address":{"StreetAddress":"341 E 87TH ST New York NY undef","City":"New York","State":"NY","Zip":"undef"},"latitude":"40.7780211","longitude":"-73.9497263"},{"address":{"StreetAddress":"351 E 74TH ST New York NY undef","City":"New York","State":"NY","Zip":"undef"},"latitude":"40.7694194","longitude":"-73.9555151"},{"address":{"StreetAddress":"351 E 74TH ST New York NY undef","City":"New York","State":"NY","Zip":"undef"},"latitude":"40.7694194","longitude":"-73.9555151"},{"address":{"StreetAddress":"351 E 74TH ST New York NY undef","City":"New York","State":"NY","Zip":"undef"},"latitude":"40.7694194","longitude":"-73.9555151"},{"address":{"StreetAddress":"109 W 129TH ST New York NY undef","City":"New York","State":"NY","Zip":"undef"},"latitude":"40.8106798","longitude":"-73.944244"},{"address":{"StreetAddress":"240 W 145TH ST New York NY undef","City":"New York","State":"NY","Zip":"undef"},"latitude":"40.8222189","longitude":"-73.9408621"},{"address":{"StreetAddress":"469 W 142ND ST New York NY undef","City":"New York","State":"NY","Zip":"undef"},"latitude":"40.8232166","longitude":"-73.9484769"},{"address":{"StreetAddress":"204 W 134TH ST New York NY undef","City":"New York","State":"NY","Zip":"undef"},"latitude":"40.8147959","longitude":"-73.9448542"},{"address":{"StreetAddress":"2044 ADAM CLAYTON POWELL BLVD New York NY undef","City":"New York","State":"NY","Zip":"undef"},"latitude":"40.8072583","longitude":"-73.9499047"},{"address":{"StreetAddress":"469 W 142ND ST New York NY undef","City":"New York","State":"NY","Zip":"undef"},"latitude":"40.8232166","longitude":"-73.9484769"},{"address":{"StreetAddress":"521 W 126TH ST New York NY undef","City":"New York","State":"NY","Zip":"undef"},"latitude":"40.8148408","longitude":"-73.9561515"},{"address":{"StreetAddress":"109 W 129TH ST New York NY undef","City":"New York","State":"NY","Zip":"undef"},"latitude":"40.8106798","longitude":"-73.944244"},{"address":{"StreetAddress":"469 W 142ND ST New York NY undef","City":"New York","State":"NY","Zip":"undef"},"latitude":"40.8232166","longitude":"-73.9484769"},{"address":{"StreetAddress":"2044 SEVENTH AVE New York NY undef","City":"New York","State":"NY","Zip":"undef"},"latitude":"40.6639307188879","longitude":"-73.9382749875207"},{"address":{"StreetAddress":"127 W 127TH ST New York NY undef","City":"New York","State":"NY","Zip":"undef"},"latitude":"40.8095378","longitude":"-73.9453852"},{"address":{"StreetAddress":"310 W 139TH ST New York NY undef","City":"New York","State":"NY","Zip":"undef"},"latitude":"40.8192096","longitude":"-73.9453784"},{"address":{"StreetAddress":"409 W 141ST ST New York NY undef","City":"New York","State":"NY","Zip":"undef"},"latitude":"40.8215113","longitude":"-73.9463991"},{"address":{"StreetAddress":"91 CLAREMONT AVE New York NY undef","City":"New York","State":"NY","Zip":"undef"},"latitude":"40.8119559","longitude":"-73.9625116"},{"address":{"StreetAddress":"1727 AMSTERDAM AVE New York NY undef","City":"New York","State":"NY","Zip":"undef"},"latitude":"40.8255289","longitude":"-73.9471616"},{"address":{"StreetAddress":"469 W 142ND ST New York NY undef","City":"New York","State":"NY","Zip":"undef"},"latitude":"40.8232166","longitude":"-73.9484769"},{"address":{"StreetAddress":"91 CLAREMONT AVE New York NY undef","City":"New York","State":"NY","Zip":"undef"},"latitude":"40.8119559","longitude":"-73.9625116"},{"address":{"StreetAddress":"219 W 132ND ST New York NY undef","City":"New York","State":"NY","Zip":"undef"},"latitude":"40.8138548","longitude":"-73.9459315"},{"address":{"StreetAddress":"211 W 129TH ST New York NY undef","City":"New York","State":"NY","Zip":"undef"},"latitude":"40.8119105","longitude":"-73.9471217"},{"address":{"StreetAddress":"425 W 144TH ST New York NY undef","City":"New York","State":"NY","Zip":"undef"},"latitude":"40.8238524","longitude":"-73.9461167"},{"address":{"StreetAddress":"204 W 134TH ST New York NY undef","City":"New York","State":"NY","Zip":"undef"},"latitude":"40.8147959","longitude":"-73.9448542"},{"address":{"StreetAddress":"506 LENOX AVE New York NY undef","City":"New York","State":"NY","Zip":"undef"},"latitude":"40.8143457","longitude":"-73.9403066"},{"address":{"StreetAddress":"1727 AMSTERDAM AVE New York NY undef","City":"New York","State":"NY","Zip":"undef"},"latitude":"40.8255289","longitude":"-73.9471616"},{"address":{"StreetAddress":"1854 AMSTERDAM AVE New York NY undef","City":"New York","State":"NY","Zip":"undef"},"latitude":"40.8295902","longitude":"-73.9446541"},{"address":{"StreetAddress":"469 W 142ND ST New York NY undef","City":"New York","State":"NY","Zip":"undef"},"latitude":"40.8232166","longitude":"-73.9484769"},{"address":{"StreetAddress":"5866 W 135TH ST New York NY undef","City":"New York","State":"NY","Zip":"undef"},"latitude":"40.6639307188879","longitude":"-73.9382749875207"},{"address":{"StreetAddress":"35 E 125 ST New York NY undef","City":"New York","State":"NY","Zip":"undef"},"latitude":"40.805958","longitude":"-73.940763"},{"address":{"StreetAddress":"223 E 117TH ST New York NY undef","City":"New York","State":"NY","Zip":"undef"},"latitude":"40.7982106","longitude":"-73.9382769"},{"address":{"StreetAddress":"2126 2ND AVE New York NY undef","City":"New York","State":"NY","Zip":"undef"},"latitude":"40.7927121","longitude":"-73.94069"},{"address":{"StreetAddress":"22 E 119TH ST New York NY undef","City":"New York","State":"NY","Zip":"undef"},"latitude":"40.8021458","longitude":"-73.9442327"},{"address":{"StreetAddress":"701 W 168TH STREET FORT WASHINGTON AVE New York NY undef","City":"New York","State":"NY","Zip":"undef"},"latitude":"40.8424566","longitude":"-73.9424508"},{"address":{"StreetAddress":"715 W 179TH ST New York NY undef","City":"New York","State":"NY","Zip":"undef"},"latitude":"40.8492702","longitude":"-73.9382266"},{"address":{"StreetAddress":"715 W 179TH ST New York NY undef","City":"New York","State":"NY","Zip":"undef"},"latitude":"40.8492702","longitude":"-73.9382266"},{"address":{"StreetAddress":"431 W 204TH ST New York NY undef","City":"New York","State":"NY","Zip":"undef"},"latitude":"40.6639307188879","longitude":"-73.9382749875207"},{"address":{"StreetAddress":"550 W 155TH ST New York NY undef","City":"New York","State":"NY","Zip":"undef"},"latitude":"40.8321897","longitude":"-73.945059"},{"address":{"StreetAddress":"557 W 156TH ST New York NY undef","City":"New York","State":"NY","Zip":"undef"},"latitude":"40.8333254","longitude":"-73.9446563"},{"address":{"StreetAddress":"35 THAYER ST New York NY undef","City":"New York","State":"NY","Zip":"undef"},"latitude":"40.8626147","longitude":"-73.9263819"},{"address":{"StreetAddress":"715 W 179TH ST New York NY undef","City":"New York","State":"NY","Zip":"undef"},"latitude":"40.8492702","longitude":"-73.9382266"},{"address":{"StreetAddress":"502 WEST165TH ST New York NY undef","City":"New York","State":"NY","Zip":"undef"},"latitude":"40.6639307188879","longitude":"-73.9382749875207"},{"address":{"StreetAddress":"91 ARDEN ST New York NY undef","City":"New York","State":"NY","Zip":"undef"},"latitude":"40.8639073","longitude":"-73.9282532"},{"address":{"StreetAddress":"20 CUMMING ST New York NY undef","City":"New York","State":"NY","Zip":"undef"},"latitude":"40.8664723","longitude":"-73.9264521"},{"address":{"StreetAddress":"84 VERMILYEA AVE New York NY undef","City":"New York","State":"NY","Zip":"undef"},"latitude":"40.86596","longitude":"-73.9231447"},{"address":{"StreetAddress":"620 ISHAM ST New York NY undef","City":"New York","State":"NY","Zip":"undef"},"latitude":"40.8692449","longitude":"-73.9206611"},{"address":{"StreetAddress":"2005 AMSTERDAM AVE New York NY undef","City":"New York","State":"NY","Zip":"undef"},"latitude":"40.8342553","longitude":"-73.9407968"},{"address":{"StreetAddress":"178 BENNETT AVE New York NY undef","City":"New York","State":"NY","Zip":"undef"},"latitude":"40.8560069","longitude":"-73.9342762"},{"address":{"StreetAddress":"178 BENNETT AVE New York NY undef","City":"New York","State":"NY","Zip":"undef"},"latitude":"40.8560069","longitude":"-73.9342762"},{"address":{"StreetAddress":"91 ARDEN ST New York NY undef","City":"New York","State":"NY","Zip":"undef"},"latitude":"40.8639073","longitude":"-73.9282532"},{"address":{"StreetAddress":"20 CUMMINGS ST New York NY undef","City":"New York","State":"NY","Zip":"undef"},"latitude":"40.8664723","longitude":"-73.9264521"},{"address":{"StreetAddress":"715 W 179TH ST New York NY undef","City":"New York","State":"NY","Zip":"undef"},"latitude":"40.8492702","longitude":"-73.9382266"},{"address":{"StreetAddress":"189TH ST New York NY undef","City":"New York","State":"NY","Zip":"undef"},"latitude":"40.6639307188879","longitude":"-73.9382749875207"},{"address":{"StreetAddress":"178 BENNETT AVE New York NY undef","City":"New York","State":"NY","Zip":"undef"},"latitude":"40.8560069","longitude":"-73.9342762"},{"address":{"StreetAddress":"178 BENNETT AVE New York NY undef","City":"New York","State":"NY","Zip":"undef"},"latitude":"40.8560069","longitude":"-73.9342762"}]